GPS BIIF-10             
1 40730U 15033A   17346.08324434 -.00000093  00000-0  00000+0 0  9997
2 40730  55.4777  32.7192 0031550 320.7991  39.0236  2.00557140 17656
